ONEWEB-0414             
1 50491U 21132Y   25265.62986896  .00000149  00000+0  34526-3 0  9998
2 50491  87.9205  28.5607 0001693  92.1343 267.9983 13.18684800186368
ONEWEB-0417             
1 50492U 21132Z   25265.63811336  .00000056  00000+0  10817-3 0  9990
2 50492  87.9208  28.5924 0001959  97.2723 262.8632 13.18684125186340
ONEWEB-0418             
1 50493U 21132AA  25265.57201092  .00000062  00000+0  12483-3 0  9994
2 50493  87.9209  28.5911 0002233  95.8871 264.2516 13.18685262186397
ONEWEB-0419             
1 50494U 21132AB  25265.59029271  .00000087  00000+0  18681-3 0  9997
2 50494  87.9203  28.5879 0002037 104.4059 255.7299 13.18686088186314
ONEWEB-0420             
1 50495U 21132AC  25265.63151655  .00000000  00000+0 -32057-4 0  9995
2 50495  87.9207  28.5903 0001371 103.7986 256.3299 13.18683922186319
ONEWEB-0421             
1 50496U 21132AD  25265.62492838  .00000059  00000+0  11670-3 0  9996
2 50496  87.9208  28.5852 0001624  88.8818 271.2500 13.18685627186351
ONEWEB-0424             
1 50497U 21132AE  25265.58533736  .00000088  00000+0  18967-3 0  9993
2 50497  87.9207  28.5880 0002022 109.1186 251.0165 13.18686622186371
ONEWEB-0426             
1 50498U 21132AF  25265.62162786  .00000102  00000+0  22563-3 0  9996
2 50498  87.9208  28.5728 0002075  80.2401 279.8966 13.18684058186324
